NORAD_CAT_ID,OBJECT_NAME,OBJECT_TYPE,EPOCH,MEAN_MOTION,ECCENTRICITY,INCLINATION,RA_OF_ASC_NODE,ARG_OF_PERICENTER,MEAN_ANOMALY,BSTAR,MEAN_MOTION_DOT,MEAN_MOTION_DDOT,TLE_LINE0,TLE_LINE1,TLE_LINE2,SEMIMAJOR_AXIS,PERIOD,APOGEE,PERIGEE,DECAYED
53641.0,STARLINK-4588,PAYLOAD,2022-12-13 03:12:44,15.08853413,0.0001437,53.2174,132.5185,71.3584,288.7565,-5.8777e-06,-3.82e-06,0.0,0 STARLINK-4588,1 53641U 22104BF  22347.13385247 -.00000382  00000-0 -58777-5 0  9993,2 53641  53.2174 132.5185 0001437  71.3584 288.7565 15.08853413 16681,6917.839,95.437,540.698,538.71,0.0
53641.0,STARLINK-4588,PAYLOAD,2022-12-13 09:34:17,15.08843053,0.0001509,53.2167,131.3289,73.3293,286.7865,3.6984e-05,3.01e-06,0.0,0 STARLINK-4588,1 53641U 22104BF  22347.39881784  .00000301  00000-0  36984-4 0  9992,2 53641  53.2167 131.3289 0001509  73.3293 286.7865 15.08843053 16729,6917.871,95.437,540.78,538.692,0.0
53641.0,STARLINK-4588,PAYLOAD,2022-12-13 19:06:36,15.08841615,0.0001489,53.2169,129.5447,72.6647,287.4508,1.7325e-05,-1.2e-07,0.0,0 STARLINK-4588,1 53641U 22104BF  22347.79625876 -.00000012  00000-0  17325-4 0  9992,2 53641  53.2169 129.5447 0001489  72.6647 287.4508 15.08841615 17802,6917.875,95.437,540.771,538.71,0.0
53641.0,STARLINK-4588,PAYLOAD,2022-12-14 09:25:05,15.08835778,0.0002419,53.2141,126.8679,81.407,278.7196,-1.0982e-05,-4.63e-06,0.0,0 STARLINK-4588,1 53641U 22104BF  22348.39242795 -.00000463  00000-0 -10982-4 0  9997,2 53641  53.2141 126.8679 0002419  81.4070 278.7196 15.08835778 16876,6917.893,95.438,541.432,538.085,0.0
53641.0,STARLINK-4588,PAYLOAD,2022-12-14 17:22:02,15.0882839,0.0001444,53.2173,125.3817,68.6262,291.4884,-7.294e-05,-1.448e-05,0.0,0 STARLINK-4588,1 53641U 22104BF  22348.72363523 -.00001448  00000-0 -72940-4 0  9993,2 53641  53.2173 125.3817 0001444  68.6262 291.4884 15.08828390 16920,6917.916,95.438,540.78,538.7819999999998,0.0
53641.0,STARLINK-4588,PAYLOAD,2022-12-15 14:02:02,15.0883831,0.0001556,53.2169,121.5179,62.6234,297.4916,9.11e-05,1.162e-05,0.0,0 STARLINK-4588,1 53641U 22104BF  22349.58474962  .00001162  00000-0  91100-4 0  9998,2 53641  53.2169 121.5179 0001556  62.6234 297.4916 15.08838310 18074,6917.886,95.438,540.827,538.674,0.0
53641.0,STARLINK-4588,PAYLOAD,2022-12-15 15:37:25,15.08841555,0.0001575,53.2169,121.2191,71.4773,288.639,0.00012486,1.7e-05,0.0,0 STARLINK-4588,1 53641U 22104BF  22349.65098730  .00001700  00000-0  12486-3 0  9998,2 53641  53.2169 121.2191 0001575  71.4773 288.6390 15.08841555 17063,6917.876,95.437,540.83,538.651,0.0
53641.0,STARLINK-4588,PAYLOAD,2022-12-15 18:48:11,15.08846459,0.0001467,53.2172,120.6248,67.1137,293.001,0.00015209,2.134e-05,0.0,0 STARLINK-4588,1 53641U 22104BF  22349.78346425  .00002134  00000-0  15209-3 0  9997,2 53641  53.2172 120.6248 0001467  67.1137 293.0010 15.08846459 18102,6917.861,95.437,540.74,538.711,0.0
53641.0,STARLINK-4588,PAYLOAD,2022-12-16 13:52:49,15.08837699,0.0001386999999999,53.2154,117.0553,55.0356,305.0766,0.00027024,4.015e-05,0.0,0 STARLINK-4588,1 53641U 22104BF  22350.57835212  .00004015  00000-0  27024-3 0  9991,2 53641  53.2154 117.0553 0001387  55.0356 305.0766 15.08837699 17209,6917.887,95.438,540.712,538.793,0.0
53641.0,STARLINK-4588,PAYLOAD,2022-12-16 18:38:58,15.08846816,0.0001438,53.2165,116.1641,62.6704,297.4434,0.0001576999999999,2.223e-05,0.0,0 STARLINK-4588,1 53641U 22104BF  22350.77706812  .00002223  00000-0  15770-3 0  9990,2 53641  53.2165 116.1641 0001438  62.6704 297.4434 15.08846816 18250,6917.86,95.437,540.719,538.73,0.0
53641.0,STARLINK-4588,PAYLOAD,2022-12-17 13:43:36,15.08837752,0.0001416,53.2157,112.5953,62.7235,297.3902,-5.3345e-05,-1.137e-05,0.0,0 STARLINK-4588,1 53641U 22104BF  22351.57195228 -.00001137  00000-0 -53345-4 0  9998,2 53641  53.2157 112.5953 0001416  62.7235 297.3902 15.08837752 18374,6917.887,95.438,540.732,538.773,0.0
53641.0,STARLINK-4588,PAYLOAD,2022-12-17 16:54:22,15.08840791,0.0001404,53.2163,112.0011,59.4623,300.6508,-1.2105e-05,-4.81e-06,0.0,0 STARLINK-4588,1 53641U 22104BF  22351.70443098 -.00000481  00000-0 -12105-4 0  9994,2 53641  53.2163 112.0011 0001404  59.4623 300.6508 15.08840791 17378,6917.878000000002,95.438,540.714,538.7719999999998,0.0
53641.0,STARLINK-4588,PAYLOAD,2022-12-18 11:59:00,15.08836771,0.0001357,53.2171,108.4332,62.63800000000001,297.475,0.00010793,1.4300000000000004e-05,0.0,0 STARLINK-4588,1 53641U 22104BF  22352.49931388  .00001430  00000-0  10793-3 0  9998,2 53641  53.2171 108.4332 0001357  62.6380 297.4750 15.08836771 18517,6917.89,95.438,540.694,538.817,0.0
53641.0,STARLINK-4588,PAYLOAD,2022-12-18 15:09:46,15.08838961,0.000136,53.217,107.8385,62.3671,297.7459,0.00015011,2.102e-05,0.0,0 STARLINK-4588,1 53641U 22104BF  22352.63179355  .00002102  00000-0  15011-3 0  9997,2 53641  53.2170 107.8385 0001360  62.3671 297.7459 15.08838961 18535,6917.884,95.438,540.689,538.808,0.0
53641.0,STARLINK-4588,PAYLOAD,2022-12-19 00:42:05,15.08849377,0.0001431,53.2172,106.0545,62.9092,297.2046,0.00031101,4.666e-05,0.0,0 STARLINK-4588,1 53641U 22104BF  22353.02922915  .00004666  00000-0  31101-3 0  9994,2 53641  53.2172 106.0545 0001431  62.9092 297.2046 15.08849377 17571,6917.852,95.437,540.707,538.727,0.0
53641.0,STARLINK-4588,PAYLOAD,2022-12-19 11:49:47,15.08850061,0.0001574,53.218,103.9739,68.2275,291.8885,0.00024533,3.620000000000001e-05,0.0,0 STARLINK-4588,1 53641U 22104BF  22353.49290811  .00003620  00000-0  24533-3 0  9998,2 53641  53.2180 103.9739 0001574  68.2275 291.8885 15.08850061 18665,6917.85,95.437,540.804,538.626,0.0
53641.0,STARLINK-4588,PAYLOAD,2022-12-19 18:11:19,15.08859074,0.0001575999999999,53.2172,102.7838,65.7887,294.327,0.00036495,5.528e-05,0.0,0 STARLINK-4588,1 53641U 22104BF  22353.75786280  .00005528  00000-0  36495-3 0  9996,2 53641  53.2172 102.7838 0001576  65.7887 294.3270 15.08859074 18700,6917.821999999999,95.436,540.7769999999998,538.597,0.0
53641.0,STARLINK-4588,PAYLOAD,2022-12-20 06:54:23,15.08865662,0.0001598,53.2165,100.4037,62.769,297.3464,0.00043214,6.601e-05,0.0,0 STARLINK-4588,1 53641U 22104BF  22354.28777514  .00006601  00000-0  43214-3 0  9995,2 53641  53.2165 100.4037 0001598  62.7690 297.3464 15.08865662 17764,6917.802,95.436,540.7719999999998,538.561,0.0
53641.0,STARLINK-4588,PAYLOAD,2022-12-20 13:15:56,15.08855554,0.0001605,53.2164,99.2139,60.1954,299.9198,0.00014117,1.96e-05,0.0,0 STARLINK-4588,1 53641U 22104BF  22354.55273565  .00001960  00000-0  14117-3 0  9995,2 53641  53.2164  99.2139 0001605  60.1954 299.9198 15.08855554 17801,6917.833000000001,95.437,540.808,538.5880000000002,0.0
53641.0,STARLINK-4588,PAYLOAD,2022-12-21 13:06:44,15.08830433,0.0001613,53.2172,94.7547,52.7284,307.3855,-0.00021234,-3.665e-05,0.0,0 STARLINK-4588,1 53641U 22104BF  22355.54634524 -.00003665  00000-0 -21234-3 0  9995,2 53641  53.2172  94.7547 0001613  52.7284 307.3855 15.08830433 17954,6917.91,95.438,540.89,538.659,0.0
53641.0,STARLINK-4588,PAYLOAD,2022-12-22 12:57:31,15.08838211,0.0001626999999999,53.2174,90.2941,55.165,304.9495,0.0001512,2.119e-05,0.0,0 STARLINK-4588,1 53641U 22104BF  22356.53995015  .00002119  00000-0  15120-3 0  9998,2 53641  53.2174  90.2941 0001627  55.1650 304.9495 15.08838211 19120,6917.886,95.438,540.876,538.625,0.0
53641.0,STARLINK-4588,PAYLOAD,2022-12-22 16:08:17,15.08842131,0.0001641999999999,53.2173,89.6991,56.2226,303.8923,0.000214,3.12e-05,0.0,0 STARLINK-4588,1 53641U 22104BF  22356.67242901  .00003120  00000-0  21400-3 0  9993,2 53641  53.2173  89.6991 0001642  56.2226 303.8923 15.08842131 18123,6917.874,95.437,540.875,538.6030000000002,0.0
53641.0,STARLINK-4588,PAYLOAD,2022-12-23 12:48:20,15.08829195,0.0001574,53.2173,85.8341,48.0035,312.1091,0.00041666,6.347e-05,0.0,0 STARLINK-4588,1 53641U 22104BF  22357.53357226  .00006347  00000-0  41666-3 0  9996,2 53641  53.2173  85.8341 0001574  48.0035 312.1091 15.08829195 18259,6917.913000000001,95.438,540.867,538.69,0.0
53641.0,STARLINK-4588,PAYLOAD,2022-12-23 17:34:30,15.08841912,0.0001659,53.2174,84.94200000000002,45.4695,314.6433,0.00092755,0.00014506,0.0,0 STARLINK-4588,1 53641U 22104BF  22357.73229199  .00014506  00000-0  92755-3 0  9996,2 53641  53.2174  84.9420 0001659  45.4695 314.6433 15.08841912 19300,6917.875,95.437,540.887,538.592,0.0
53641.0,STARLINK-4588,PAYLOAD,2022-12-24 12:39:07,15.08857229,0.0001716,53.2175,81.3734,43.3539,316.7588,0.0011777,0.00018514,0.0,0 STARLINK-4588,1 53641U 22104BF  22358.52717241  .00018514  00000-0  11777-2 0  9991,2 53641  53.2175  81.3734 0001716  43.3539 316.7588 15.08857229 18400,6917.828,95.436,540.88,538.506,0.0
53641.0,STARLINK-4588,PAYLOAD,2022-12-24 17:25:17,15.08844408,0.0001856,53.2176,80.482,47.0409,313.0738,0.00059275,9.159e-05,0.0,0 STARLINK-4588,1 53641U 22104BF  22358.72589437  .00009159  00000-0  59275-3 0  9998,2 53641  53.2176  80.4820 0001856  47.0409 313.0738 15.08844408 18434,6917.8669999999975,95.437,541.016,538.448,0.0
53641.0,STARLINK-4588,PAYLOAD,2022-12-25 06:08:21,15.0885784,0.0001852,53.2176,78.1035,46.2999,313.8147,0.00029658,4.437e-05,0.0,0 STARLINK-4588,1 53641U 22104BF  22359.25580609  .00004437  00000-0  29658-3 0  9995,2 53641  53.2176  78.1035 0001852  46.2999 313.8147 15.08857840 19535,6917.826,95.436,540.972,538.41,0.0
53641.0,STARLINK-4588,PAYLOAD,2022-12-25 10:54:31,15.08840742,0.0002197,53.2173,77.2108,28.7689,331.3424,-0.00013301,-2.405e-05,0.0,0 STARLINK-4588,1 53641U 22104BF  22359.45452912 -.00002405  00000-0 -13301-3 0  9995,2 53641  53.2173  77.2108 0002197  28.7689 331.3424 15.08840742 18543,6917.878000000002,95.438,541.263,538.2230000000002,0.0
53641.0,STARLINK-4588,PAYLOAD,2022-12-26 05:59:08,15.08838262,0.0001583,53.2173,73.643,56.6247,303.4897,-4.0613e-05,-9.34e-06,0.0,0 STARLINK-4588,1 53641U 22104BF  22360.24940783 -.00000934  00000-0 -40613-4 0  9994,2 53641  53.2173  73.6430 0001583  56.6247 303.4897 15.08838262 19683,6917.886,95.438,540.846,538.656,0.0
